CCSDS_OMM_VERS = 2.0
CREATION_DATE  = 
ORIGINATOR     = 

OBJECT_NAME    = XRISM
OBJECT_ID      = 2023-137A
CENTER_NAME    = EARTH
REF_FRAME      = TEME
TIME_SYSTEM    = UTC
MEAN_ELEMENT_THEORY = SGP/SGP4

EPOCH          = 2026-03-31T11:55:47.966880
MEAN_MOTION    = 15.11758652
ECCENTRICITY   = .00079152
INCLINATION    = 31.0015
RA_OF_ASC_NODE = 142.5846
ARG_OF_PERICENTER = 258.4497
MEAN_ANOMALY   = 101.5253

EPHEMERIS_TYPE = 0
CLASSIFICATION_TYPE = U
NORAD_CAT_ID   = 57800
ELEMENT_SET_NO = 999
REV_AT_EPOCH   = 14109
BSTAR          = .42231762E-3
MEAN_MOTION_DOT = .7486E-4
MEAN_MOTION_DDOT = 0

CCSDS_OMM_VERS = 2.0
CREATION_DATE  = 
ORIGINATOR     = 

OBJECT_NAME    = ACS3
OBJECT_ID      = 2024-077B
CENTER_NAME    = EARTH
REF_FRAME      = TEME
TIME_SYSTEM    = UTC
MEAN_ELEMENT_THEORY = SGP/SGP4

EPOCH          = 2026-03-31T12:33:30.392352
MEAN_MOTION    = 13.90628156
ECCENTRICITY   = .00731097
INCLINATION    = 97.1961
RA_OF_ASC_NODE = 26.7279
ARG_OF_PERICENTER = 27.1683
MEAN_ANOMALY   = 333.3277

EPHEMERIS_TYPE = 0
CLASSIFICATION_TYPE = U
NORAD_CAT_ID   = 59588
ELEMENT_SET_NO = 999
REV_AT_EPOCH   = 9723
BSTAR          = .20035021E-1
MEAN_MOTION_DOT = .25567E-3
MEAN_MOTION_DDOT = 0

CCSDS_OMM_VERS = 2.0
CREATION_DATE  = 
ORIGINATOR     = 

OBJECT_NAME    = SZ-21 MODULE
OBJECT_ID      = 2025-246C
CENTER_NAME    = EARTH
REF_FRAME      = TEME
TIME_SYSTEM    = UTC
MEAN_ELEMENT_THEORY = SGP/SGP4

EPOCH          = 2026-03-31T07:51:41.475168
MEAN_MOTION    = 15.70267217
ECCENTRICITY   = .00022653
INCLINATION    = 41.4738
RA_OF_ASC_NODE = 69.9930
ARG_OF_PERICENTER = 217.1481
MEAN_ANOMALY   = 142.9205

EPHEMERIS_TYPE = 0
CLASSIFICATION_TYPE = U
NORAD_CAT_ID   = 66515
ELEMENT_SET_NO = 999
REV_AT_EPOCH   = 2147
BSTAR          = .37673665E-3
MEAN_MOTION_DOT = .47143E-3
MEAN_MOTION_DDOT = 0

